{"type": "FeatureCollection", "features": [ {"type": "Feature", "properties": {"norad_id": 30358, "name": "FENGYUN 1C DEB", "group": "fengyun-1c-debris", "lat": -7.747631937781675, "lon": -8.743986719422598, "alt_km": 771.7338489627664, "timestamp": "2025-12-09T04:51:47.769080+00:00", "meta": {"OBJECT_NAME": "FENGYUN 1C DEB", "OBJECT_ID": "1999-025ABV", "EPOCH": "2025-12-08T11:12:57.267072", "MEAN_MOTION": 14.20617817, "ECCENTRICITY": 0.00829051, "INCLINATION": 98.5539, "RA_OF_ASC_NODE": 171.7178, "ARG_OF_PERICENTER": 211.9954, "MEAN_ANOMALY": 177.672, "EPHEMERIS_TYPE": 0, "CLASSIFICATION_TYPE": "U", "NORAD_CAT_ID": 30358, "ELEMENT_SET_NO": 999, "REV_AT_EPOCH": 96857, "BSTAR": 0.0027715099, "MEAN_MOTION_DOT": 6.136e-05, "MEAN_MOTION_DDOT": 0}, "tle": {"line1": "1 30358U 99025ABV 25342.46732948  .00006136  00000+0  27715-2 0  9992", "line2": "2 30358  98.5539 171.7178 0082905 211.9954 177.6720 14.20617817968579"}}, "geometry": {"type": "Point", "coordinates": [-8.743986719422598, -7.747631937781675]}}, {"type": "Feature", "properties": {"norad_id": 30359, "name": "FENGYUN 1C DEB", "group": "fengyun-1c-debris", "lat": -6.583498901430558, "lon": -13.36153738024055, "alt_km": 1020.3325694586347, "timestamp": "2025-12-09T04:51:47.769091+00:00", "meta": {"OBJECT_NAME": "FENGYUN 1C DEB", "OBJECT_ID": "1999-025ABW", "EPOCH": "2025-12-08T10:44:31.964352", "MEAN_MOTION": 13.9395815, "ECCENTRICITY": 0.01451081, "INCLINATION": 101.6275, "RA_OF_ASC_NODE": 167.0525, "ARG_OF_PERICENTER": 353.1781, "MEAN_ANOMALY": 6.7394, "EPHEMERIS_TYPE": 0, "CLASSIFICATION_TYPE": "U", "NORAD_CAT_ID": 30359, "ELEMENT_SET_NO": 999, "REV_AT_EPOCH": 95009, "BSTAR": 0.0035678149, "MEAN_MOTION_DOT": 5.084e-05, "MEAN_MOTION_DDOT": 0}, "tle": {"line1": "1 30359U 99025ABW 25342.44759218  .00005084  00000+0  35678-2 0  9998", "line2": "2 30359 101.6275 167.0525 0145108 353.1781   6.7394 13.93958150950093"}}, "geometry": {"type": "Point", "coordinates": [-13.36153738024055, -6.583498901430558]}}, {"type": "Feature", "properties": {"norad_id": 30360, "name": "FENGYUN 1C DEB", "group": "fengyun-1c-debris", "lat": 33.43194202402965, "lon": -121.35656206689363, "alt_km": 779.1878524249778, "timestamp": "2025-12-09T04:51:47.769101+00:00", "meta": {"OBJECT_NAME": "FENGYUN 1C DEB", "OBJECT_ID": "1999-025ABX", "EPOCH": "2025-12-08T03:15:29.218176", "MEAN_MOTION": 14.26448866, "ECCENTRICITY": 0.0031514, "INCLINATION": 98.7649, "RA_OF_ASC_NODE": 51.7299, "ARG_OF_PERICENTER": 159.4485, "MEAN_ANOMALY": 271.0559, "EPHEMERIS_TYPE": 0, "CLASSIFICATION_TYPE": "U", "NORAD_CAT_ID": 30360, "ELEMENT_SET_NO": 999, "REV_AT_EPOCH": 97359, "BSTAR": 0.0021708471, "MEAN_MOTION_DOT": 5.211e-05, "MEAN_MOTION_DDOT": 0}, "tle": {"line1": "1 30360U 99025ABX 25342.13575484  .00005211  00000+0  21708-2 0  9998", "line2": "2 30360  98.7649  51.7299 0031514 159.4485 271.0559 14.26448866973591"}}, "geometry": {"type": "Point", "coordinates": [-121.35656206689363, 33.43194202402965]}}, {"type": "Feature", "properties": {"norad_id": 30361, "name": "FENGYUN 1C DEB", "group": "fengyun-1c-debris", "lat": -77.52238735442256, "lon": 156.2616953627089, "alt_km": 850.6755601158648, "timestamp": "2025-12-09T04:51:47.769111+00:00", "meta": {"OBJECT_NAME": "FENGYUN 1C DEB", "OBJECT_ID": "1999-025ABY", "EPOCH": "2025-12-08T15:50:58.543584", "MEAN_MOTION": 14.25330529, "ECCENTRICITY": 0.0065448, "INCLINATION": 98.5688, "RA_OF_ASC_NODE": 18.6823, "ARG_OF_PERICENTER": 42.6235, "MEAN_ANOMALY": 317.9997, "EPHEMERIS_TYPE": 0, "CLASSIFICATION_TYPE": "U", "NORAD_CAT_ID": 30361, "ELEMENT_SET_NO": 999, "REV_AT_EPOCH": 97558, "BSTAR": 0.0014674, "MEAN_MOTION_DOT": 3.493e-05, "MEAN_MOTION_DDOT": 0}, "tle": {"line1": "1 30361U 99025ABY 25342.66039981  .00003493  00000+0  14674-2 0  9998", "line2": "2 30361  98.5688  18.6823 0065448  42.6235 317.9997 14.25330529975589"}}, "geometry": {"type": "Point", "coordinates": [156.2616953627089, -77.52238735442256]}}, {"type": "Feature", "properties": {"norad_id": 30362, "name": "FENGYUN 1C DEB", "group": "fengyun-1c-debris", "lat": 76.37037302790253, "lon": -135.1015510617192, "alt_km": 841.153622216204, "timestamp": "2025-12-09T04:51:47.769121+00:00", "meta": {"OBJECT_NAME": "FENGYUN 1C DEB", "OBJECT_ID": "1999-025ABZ", "EPOCH": "2025-12-08T18:17:09.336768", "MEAN_MOTION": 14.11768247, "ECCENTRICITY": 0.0095894, "INCLINATION": 99.0467, "RA_OF_ASC_NODE": 265.5306, "ARG_OF_PERICENTER": 354.5297, "MEAN_ANOMALY": 5.4818, "EPHEMERIS_TYPE": 0, "CLASSIFICATION_TYPE": "U", "NORAD_CAT_ID": 30362, "ELEMENT_SET_NO": 999, "REV_AT_EPOCH": 96112, "BSTAR": 0.0041439, "MEAN_MOTION_DOT": 7.849e-05, "MEAN_MOTION_DDOT": 0}, "tle": {"line1": "1 30362U 99025ABZ 25342.76191362  .00007849  00000+0  41439-2 0  9990", "line2": "2 30362  99.0467 265.5306 0095894 354.5297   5.4818 14.11768247961124"}}, "geometry": {"type": "Point", "coordinates": [-135.1015510617192, 76.37037302790253]}}, {"type": "Feature", "properties": {"norad_id": 30363, "name": "FENGYUN 1C DEB", "group": "fengyun-1c-debris", "lat": -80.60789125279952, "lon": 160.24891195935186, "alt_km": 888.4673911381024, "timestamp": "2025-12-09T04:51:47.769132+00:00", "meta": {"OBJECT_NAME": "FENGYUN 1C DEB", "OBJECT_ID": "1999-025ACA", "EPOCH": "2025-12-08T15:44:29.626944", "MEAN_MOTION": 14.16842256, "ECCENTRICITY": 0.0079529, "INCLINATION": 99.0304, "RA_OF_ASC_NODE": 53.7312, "ARG_OF_PERICENTER": 51.0867, "MEAN_ANOMALY": 309.7363, "EPHEMERIS_TYPE": 0, "CLASSIFICATION_TYPE": "U", "NORAD_CAT_ID": 30363, "ELEMENT_SET_NO": 999, "REV_AT_EPOCH": 96766, "BSTAR": 0.0022265, "MEAN_MOTION_DOT": 4.558e-05, "MEAN_MOTION_DDOT": 0}, "tle": {"line1": "1 30363U 99025ACA 25342.65589846  .00004558  00000+0  22265-2 0  9997", "line2": "2 30363  99.0304  53.7312 0079529  51.0867 309.7363 14.16842256967666"}}, "geometry": {"type": "Point", "coordinates": [160.24891195935186, -80.60789125279952]}}, {"type": "Feature", "properties": {"norad_id": 30364, "name": "FENGYUN 1C DEB", "group": "fengyun-1c-debris", "lat": 30.36439741689162, "lon": -104.97071939047251, "alt_km": 708.271419114486, "timestamp": "2025-12-09T04:51:47.769141+00:00", "meta": {"OBJECT_NAME": "FENGYUN 1C DEB", "OBJECT_ID": "1999-025ACB", "EPOCH": "2025-12-08T05:44:01.310784", "MEAN_MOTION": 14.16943722, "ECCENTRICITY": 0.03331866, "INCLINATION": 98.1364, "RA_OF_ASC_NODE": 258.9532, "ARG_OF_PERICENTER": 333.5102, "MEAN_ANOMALY": 180.7922, "EPHEMERIS_TYPE": 0, "CLASSIFICATION_TYPE": "U", "NORAD_CAT_ID": 30364, "ELEMENT_SET_NO": 999, "REV_AT_EPOCH": 95577, "BSTAR": 0.0044562781, "MEAN_MOTION_DOT": 0.00015436, "MEAN_MOTION_DDOT": 0}, "tle": {"line1": "1 30364U 99025ACB 25342.23890406  .00015436  00000+0  44563-2 0  9991", "line2": "2 30364  98.1364 258.9532 0333186 333.5102 180.7922 14.16943722955775"}}, "geometry": {"type": "Point", "coordinates": [-104.97071939047251, 30.36439741689162]}}, {"type": "Feature", "properties": {"norad_id": 30365, "name": "FENGYUN 1C DEB", "group": "fengyun-1c-debris", "lat": -14.525387517663416, "lon": 155.42638112597314, "alt_km": 795.3682869721542, "timestamp": "2025-12-09T04:51:47.769151+00:00", "meta": {"OBJECT_NAME": "FENGYUN 1C DEB", "OBJECT_ID": "1999-025ACC", "EPOCH": "2025-12-08T18:37:58.600416", "MEAN_MOTION": 14.19224367, "ECCENTRICITY": 0.0167904, "INCLINATION": 98.6187, "RA_OF_ASC_NODE": 337.2636, "ARG_OF_PERICENTER": 122.7962, "MEAN_ANOMALY": 53.3094, "EPHEMERIS_TYPE": 0, "CLASSIFICATION_TYPE": "U", "NORAD_CAT_ID": 30365, "ELEMENT_SET_NO": 999, "REV_AT_EPOCH": 97556, "BSTAR": 0.00034421, "MEAN_MOTION_DOT": 7.88e-06, "MEAN_MOTION_DDOT": 0}, "tle": {"line1": "1 30365U 99025ACC 25342.77637269  .00000788  00000+0  34421-3 0  9994", "line2": "2 30365  98.6187 337.2636 0167904 122.7962  53.3094 14.19224367975569"}}, "geometry": {"type": "Point", "coordinates": [155.42638112597314, -14.525387517663416]}}, {"type": "Feature", "properties": {"norad_id": 30366, "name": "FENGYUN 1C DEB", "group": "fengyun-1c-debris", "lat": 77.59519319462423, "lon": 126.16458557678524, "alt_km": 801.9165394544743, "timestamp": "2025-12-09T04:51:47.769161+00:00", "meta": {"OBJECT_NAME": "FENGYUN 1C DEB", "OBJECT_ID": "1999-025ACD", "EPOCH": "2025-12-08T18:38:09.091968", "MEAN_MOTION": 14.33470989, "ECCENTRICITY": 0.0061953, "INCLINATION": 98.9227, "RA_OF_ASC_NODE": 260.1429, "ARG_OF_PERICENTER": 231.1156, "MEAN_ANOMALY": 190.1916, "EPHEMERIS_TYPE": 0, "CLASSIFICATION_TYPE": "U", "NORAD_CAT_ID": 30366, "ELEMENT_SET_NO": 999, "REV_AT_EPOCH": 98266, "BSTAR": 0.00099563, "MEAN_MOTION_DOT": 2.764e-05, "MEAN_MOTION_DDOT": 0}, "tle": {"line1": "1 30366U 99025ACD 25342.77649412  .00002764  00000+0  99563-3 0  9992", "line2": "2 30366  98.9227 260.1429 0061953 231.1156 190.1916 14.33470989982660"}}, "geometry": {"type": "Point", "coordinates": [126.16458557678524, 77.59519319462423]}}, {"type": "Feature", "properties": {"norad_id": 30368, "name": "FENGYUN 1C DEB", "group": "fengyun-1c-debris", "lat": 28.29306002694184, "lon": 84.25275598676059, "alt_km": 932.9802381419559, "timestamp": "2025-12-09T04:51:47.769171+00:00", "meta": {"OBJECT_NAME": "FENGYUN 1C DEB", "OBJECT_ID": "1999-025ACF", "EPOCH": "2025-12-08T13:05:00.871008", "MEAN_MOTION": 13.7535959, "ECCENTRICITY": 0.0186058, "INCLINATION": 99.1885, "RA_OF_ASC_NODE": 88.6173, "ARG_OF_PERICENTER": 319.1592, "MEAN_ANOMALY": 53.9408, "EPHEMERIS_TYPE": 0, "CLASSIFICATION_TYPE": "U", "NORAD_CAT_ID": 30368, "ELEMENT_SET_NO": 999, "REV_AT_EPOCH": 94604, "BSTAR": 0.00070832, "MEAN_MOTION_DOT": 7.28e-06, "MEAN_MOTION_DDOT": 0}, "tle": {"line1": "1 30368U 99025ACF 25342.54514897  .00000728  00000+0  70832-3 0  9993", "line2": "2 30368  99.1885  88.6173 0186058 319.1592  53.9408 13.75359590946042"}}, "geometry": {"type": "Point", "coordinates": [84.25275598676059, 28.29306002694184]}}]}